[{"OBJECT_NAME":"STARLINK-34907","OBJECT_ID":"2025-176R","EPOCH":"2026-03-09T12:26:10.412448","MEAN_MOTION":15.30192945,"ECCENTRICITY":9.626e-5,"INCLINATION":53.1578,"RA_OF_ASC_NODE":153.5626,"ARG_OF_PERICENTER":85.5613,"MEAN_ANOMALY":274.5498,"EPHEMERIS_TYPE":0,"CLASSIFICATION_TYPE":"U","NORAD_CAT_ID":65213,"ELEMENT_SET_NO":999,"REV_AT_EPOCH":3309,"BSTAR":0.0011126903,"MEAN_MOTION_DOT":0.00032734,"MEAN_MOTION_DDOT":0},{"OBJECT_NAME":"CZ-4C R\/B","OBJECT_ID":"2023-123B","EPOCH":"2026-03-09T21:44:40.426944","MEAN_MOTION":15.36684191,"ECCENTRICITY":0.00627803,"INCLINATION":97.9677,"RA_OF_ASC_NODE":50.672,"ARG_OF_PERICENTER":67.0775,"MEAN_ANOMALY":293.7077,"EPHEMERIS_TYPE":0,"CLASSIFICATION_TYPE":"U","NORAD_CAT_ID":57655,"ELEMENT_SET_NO":999,"REV_AT_EPOCH":14181,"BSTAR":0.00052203987,"MEAN_MOTION_DOT":0.00019917,"MEAN_MOTION_DDOT":0}]
